[Satellite]
VERSION=1.1
NAME=COSMOS 2428
NICKNAME=COSMOS 2428
TLE1=1 31792U 07029A   18021.20291356  .00000342  00000-0  21089-3 0  9992
TLE2=2 31792  70.9464 314.6316 0010659 297.5659  62.4378 14.12430292544856
